NORAD_CAT_ID,OBJECT_NAME,OBJECT_TYPE,EPOCH,MEAN_MOTION,ECCENTRICITY,INCLINATION,RA_OF_ASC_NODE,ARG_OF_PERICENTER,MEAN_ANOMALY,BSTAR,MEAN_MOTION_DOT,MEAN_MOTION_DDOT,TLE_LINE0,TLE_LINE1,TLE_LINE2,SEMIMAJOR_AXIS,PERIOD,APOGEE,PERIGEE,DECAYED
51867.0,STARLINK-3590,PAYLOAD,2023-02-20 11:09:11,15.08844162,8.68e-05,53.2165,326.5804,93.5569,266.5522,0.0005439,8.38e-05,0.0,0 STARLINK-3590,1 51867U 22022R   23051.46472178  .00008380  00000-0  54390-3 0  9998,2 51867  53.2165 326.5804 0000868  93.5569 266.5522 15.08844162 55050,6917.868,95.437,540.333,539.132,0.0
51867.0,STARLINK-3590,PAYLOAD,2023-02-21 10:59:59,15.08849947,0.0001408,53.2159,322.1194,74.8952,285.2196,0.001074,0.00016851,0.0,0 STARLINK-3590,1 51867U 22022R   23052.45832390  .00016851  00000-0  10740-2 0  9996,2 51867  53.2159 322.1194 0001408  74.8952 285.2196 15.08849947 55204,6917.85,95.437,540.689,538.741,0.0
51867.0,STARLINK-3590,PAYLOAD,2023-02-21 18:56:54,15.08846067,6.23e-05,53.2162,320.6331,54.9707,305.1343,0.0010495,0.00016457,0.0,0 STARLINK-3590,1 51867U 22022R   23052.78952094  .00016457  00000-0  10495-2 0  9995,2 51867  53.2162 320.6331 0000623  54.9707 305.1343 15.08846067 55250,6917.862,95.437,540.158,539.296,0.0
51867.0,STARLINK-3590,PAYLOAD,2023-02-22 02:53:50,15.08865587,8.65e-05,53.2155,319.1462,79.1668,280.9422,0.0022221,0.00035279,0.0,0 STARLINK-3590,1 51867U 22022R   23053.12071909  .00035279  00000-0  22221-2 0  9994,2 51867  53.2155 319.1462 0000865  79.1668 280.9422 15.08865587 55305,6917.802,95.436,540.266,539.069,0.0
51867.0,STARLINK-3590,PAYLOAD,2023-02-22 21:58:28,15.08836713,7.45e-05,53.2157,315.5775,42.4021,317.7028,0.0015137,0.00023882,0.0,0 STARLINK-3590,1 51867U 22022R   23053.91561066  .00023882  00000-0  15137-2 0  9994,2 51867  53.2157 315.5775 0000745  42.4021 317.7028 15.08836713 55420,6917.89,95.438,540.271,539.24,0.0
51867.0,STARLINK-3590,PAYLOAD,2023-02-23 07:30:47,15.08843393,0.000123,53.2152,313.7938,78.2207,281.8923,0.0012759,0.00020078,0.0,0 STARLINK-3590,1 51867U 22022R   23054.31305322  .00020078  00000-0  12759-2 0  9991,2 51867  53.2152 313.7938 0001230  78.2207 281.8923 15.08843393 55482,6917.87,95.437,540.586,538.884,0.0
51867.0,STARLINK-3590,PAYLOAD,2023-02-23 17:03:06,15.08842274,0.0001116,53.2161,312.0094,79.4027,280.7091,0.0010992,0.0001725,0.0,0 STARLINK-3590,1 51867U 22022R   23054.71049358  .00017250  00000-0  10992-2 0  9994,2 51867  53.2161 312.0094 0001116  79.4027 280.7091 15.08842274 55541,6917.873,95.437,540.51,538.966,0.0
51867.0,STARLINK-3590,PAYLOAD,2023-02-23 23:24:39,15.08856418,0.000141,53.2148,310.8228,71.4263,288.6883,0.0010962,0.00017209,0.0,0 STARLINK-3590,1 51867U 22022R   23054.97545148  .00017209  00000-0  10962-2 0  9991,2 51867  53.2148 310.8228 0001410  71.4263 288.6883 15.08856418 55587,6917.83,95.437,540.671,538.72,0.0
51867.0,STARLINK-3590,PAYLOAD,2023-02-24 20:04:39,15.08851318,0.0001231,53.2154,306.9566,90.0933,270.02,0.00039346,5.981e-05,0.0,0 STARLINK-3590,1 51867U 22022R   23055.83656876  .00005981  00000-0  39346-3 0  9990,2 51867  53.2154 306.9566 0001231  90.0933 270.0200 15.08851318 55714,6917.846,95.437,540.562,538.859,0.0
51867.0,STARLINK-3590,PAYLOAD,2023-02-24 23:15:25,15.08845549,0.0001299,53.2153,306.3609,85.706,274.4081,0.00017735,2.536e-05,0.0,0 STARLINK-3590,1 51867U 22022R   23055.96904842  .00002536  00000-0  17735-3 0  9994,2 51867  53.2153 306.3609 0001299  85.7060 274.4081 15.08845549 55737,6917.863,95.437,540.627,538.83,0.0
51867.0,STARLINK-3590,PAYLOAD,2023-02-25 02:26:12,15.08847935,0.0001273,53.2151,305.7636,87.4689,272.6449,0.00025454,3.766e-05,0.0,0 STARLINK-3590,1 51867U 22022R   23056.10152782  .00003766  00000-0  25454-3 0  9992,2 51867  53.2151 305.7636 0001273  87.4689 272.6449 15.08847935 55757,6917.856,95.437,540.602,538.84,0.0
51867.0,STARLINK-3590,PAYLOAD,2023-02-25 19:55:26,15.08837389,0.0001294,53.2152,302.4909,91.068,269.0461,5.4315e-05,5.77e-06,0.0,0 STARLINK-3590,1 51867U 22022R   23056.83017145  .00000577  00000-0  54315-4 0  9991,2 51867  53.2152 302.4909 0001294  91.0680 269.0461 15.08837389 55868,6917.888,95.438,540.649,538.858,0.0
51867.0,STARLINK-3590,PAYLOAD,2023-02-26 02:16:59,15.08849862,0.0001392,53.2152,301.3003,99.2149,260.9001,5.2093e-05,5.41e-06,0.0,0 STARLINK-3590,1 51867U 22022R   23057.09512732  .00000541  00000-0  52093-4 0  9994,2 51867  53.2152 301.3003 0001392  99.2149 260.9001 15.08849862 55904,6917.85,95.437,540.678,538.752,0.0
51867.0,STARLINK-3590,PAYLOAD,2023-02-27 03:43:08,15.08875746,0.0001222,53.2162,296.5417,94.8365,265.2767,0.00071802,0.00011169,0.0,0 STARLINK-3590,1 51867U 22022R   23058.15495427  .00011169  00000-0  71802-3 0  9999,2 51867  53.2162 296.5417 0001222  94.8365 265.2767 15.08875746 56067,6917.771,95.435,540.481,538.791,0.0
51867.0,STARLINK-3590,PAYLOAD,2023-02-27 22:47:45,15.08866394,0.0001479,53.2161,292.9795,103.2951,256.8206,0.00072319,0.00011249,0.0,0 STARLINK-3590,1 51867U 22022R   23058.94983378  .00011249  00000-0  72319-3 0  9996,2 51867  53.2161 292.9795 0001479 103.2951 256.8206 15.08866394 56181,6917.8,95.436,540.688,538.642,0.0
51867.0,STARLINK-3590,PAYLOAD,2023-02-28 03:33:54,15.08882005,0.0001191,53.2151,292.0848,76.8904,283.2221,0.0019674,0.00031198,0.0,0 STARLINK-3590,1 51867U 22022R   23059.14854984  .00031198  00000-0  19674-2 0  9998,2 51867  53.2151 292.0848 0001191  76.8904 283.2221 15.08882005 56216,6917.752,95.435,540.441,538.793,0.0
51867.0,STARLINK-3590,PAYLOAD,2023-02-28 14:41:38,15.08792441,9.68e-05,53.215,290.0022,101.9439,258.1662,0.00054386,8.367e-05,0.0,0 STARLINK-3590,1 51867U 22022R   23059.61225073  .00008367  00000-0  54386-3 0  9993,2 51867  53.2150 290.0022 0000968 101.9439 258.1662 15.08792441 56282,6918.026,95.441,540.56,539.221,0.0
51867.0,STARLINK-3590,PAYLOAD,2023-02-28 21:03:11,15.08795923,0.0001207,53.2149,288.8134,99.476,260.6369,0.00055056,8.475e-05,0.0,0 STARLINK-3590,1 51867U 22022R   23059.87721729  .00008475  00000-0  55056-3 0  9995,2 51867  53.2149 288.8134 0001207  99.4760 260.6369 15.08795923 56329,6918.015,95.44,540.715,539.045,0.0
51867.0,STARLINK-3590,PAYLOAD,2023-03-01 05:00:08,15.08810382,0.0001328,53.2147,287.3264,95.856,264.2583,0.0015517,0.00024474,0.0,0 STARLINK-3590,1 51867U 22022R   23060.20842655  .00024474  00000-0  15517-2 0  9990,2 51867  53.2147 287.3264 0001328  95.8560 264.2583 15.08810382 56377,6917.971,95.439,540.755,538.917,0.0
51867.0,STARLINK-3590,PAYLOAD,2023-03-01 20:53:59,15.08837505,0.0001285,53.2143,284.3538,91.761,268.3529,0.0013201,0.00020782,0.0,0 STARLINK-3590,1 51867U 22022R   23060.87083288  .00020782  00000-0  13201-2 0  9998,2 51867  53.2143 284.3538 0001285  91.7610 268.3529 15.08837505 56479,6917.888,95.438,540.642,538.864,0.0
51867.0,STARLINK-3590,PAYLOAD,2023-03-02 19:09:23,15.08862393,0.000129,53.2142,280.1903,98.8458,261.2681,0.0011198,0.00017589,0.0,0 STARLINK-3590,1 51867U 22022R   23061.79818651  .00017589  00000-0  11198-2 0  9994,2 51867  53.2142 280.1903 0001290  98.8458 261.2681 15.08862393 56612,6917.812,95.436,540.569,538.785,0.0
51867.0,STARLINK-3590,PAYLOAD,2023-03-02 23:55:32,15.08872974,0.0001308,53.2143,279.2974,101.9974,258.1164,0.001189,0.00018703,0.0,0 STARLINK-3590,1 51867U 22022R   23061.99690213  .00018703  00000-0  11890-2 0  9996,2 51867  53.2143 279.2974 0001308 101.9974 258.1164 15.08872974 56649,6917.78,95.435,540.549,538.74,0.0
51867.0,STARLINK-3590,PAYLOAD,2023-03-03 14:13:59,15.08871581,0.0001928,53.2161,276.6187,112.6667,247.4529,0.0010229,0.00016043,0.0,0 STARLINK-3590,1 51867U 22022R   23062.59305535  .00016043  00000-0  10229-2 0  9993,2 51867  53.2161 276.6187 0001928 112.6667 247.4529 15.08871581 56731,6917.784,95.436,540.983,538.315,0.0
51867.0,STARLINK-3590,PAYLOAD,2023-03-03 20:35:32,15.08876699,0.0001152,53.2147,275.4319,90.9892,269.1232,0.00096092,0.00015053,0.0,0 STARLINK-3590,1 51867U 22022R   23062.85801096  .00015053  00000-0  96092-3 0  9998,2 51867  53.2147 275.4319 0001152  90.9892 269.1232 15.08876699 56777,6917.768,95.435,540.43,538.836,0.0
51867.0,STARLINK-3590,PAYLOAD,2023-03-04 14:04:46,15.08848585,0.0001355,53.2151,272.1594,92.449,267.6657,0.00050034,7.686e-05,0.0,0 STARLINK-3590,1 51867U 22022R   23063.58665252  .00007686  00000-0  50034-3 0  9990,2 51867  53.2151 272.1594 0001355  92.4490 267.6657 15.08848585 56886,6917.854,95.437,540.657,538.782,0.0
51867.0,STARLINK-3590,PAYLOAD,2023-03-04 20:26:19,15.08838184,0.0001329,53.2148,270.9687,73.5913,286.5225,0.000289,4.314e-05,0.0,0 STARLINK-3590,1 51867U 22022R   23063.85161570  .00004314  00000-0  28900-3 0  9996,2 51867  53.2148 270.9687 0001329  73.5913 286.5225 15.08838184 56922,6917.886,95.438,540.67,538.832,0.0
51867.0,STARLINK-3590,PAYLOAD,2023-03-05 13:55:34,15.08834664,0.000129,53.2143,267.698,65.176,294.9366,0.00039756,6.044e-05,0.0,0 STARLINK-3590,1 51867U 22022R   23064.58026124  .00006044  00000-0  39756-3 0  9995,2 51867  53.2143 267.6980 0001290  65.1760 294.9366 15.08834664 57031,6917.897,95.438,540.654,538.869,0.0
51867.0,STARLINK-3590,PAYLOAD,2023-03-05 20:17:07,15.08836406,0.0001136,53.2142,266.508,65.2338,294.8772,0.00012936,1.771e-05,0.0,0 STARLINK-3590,1 51867U 22022R   23064.84522092  .00001771  00000-0  12936-3 0  9992,2 51867  53.2142 266.5080 0001136  65.2338 294.8772 15.08836406 57070,6917.891,95.438,540.542,538.971,0.0
51867.0,STARLINK-3590,PAYLOAD,2023-03-06 12:10:58,15.08834805,0.0001345,53.2153,263.5365,77.6289,282.4854,0.00017508,2.499e-05,0.0,0 STARLINK-3590,1 51867U 22022R   23065.50762524  .00002499  00000-0  17508-3 0  9990,2 51867  53.2153 263.5365 0001345  77.6289 282.4854 15.08834805 57175,6917.896,95.438,540.692,538.831,0.0
51867.0,STARLINK-3590,PAYLOAD,2023-03-06 20:07:54,15.08843403,0.0001204,53.2149,262.0505,75.3301,284.7824,0.00028551,4.259e-05,0.0,0 STARLINK-3590,1 51867U 22022R   23065.83882197  .00004259  00000-0  28551-3 0  9991,2 51867  53.2149 262.0505 0001204  75.3301 284.7824 15.08843403 57226,6917.87,95.437,540.568,538.902,0.0
